{
  "norad_id": 31698,
  "name": "TERRASAR-X",
  "history": [
    {
      "epoch": "2026-03-27T12:21:40.959360",
      "apogee_km": 509.7637474166595,
      "perigee_km": 507.03943275042275,
      "latitude_deg": -81.55263958588358,
      "longitude_deg": -176.75448960019276,
      "semi_major_axis_km": 6886.538590083541,
      "eccentricity": 0.0001978,
      "inclination_deg": 97.4468,
      "raan_deg": 95.386,
      "arg_perigee_deg": 86.5295,
      "mean_anomaly_deg": 273.6166,
      "mean_motion_rev_day": 15.19152189
    }
  ]
}